[Satellite]
VERSION=1.1
NAME=FALCONSAT-3
NICKNAME=FALCONSAT-3
TLE1=1 30776U 07006E   17185.82072421  .00002331  00000-0  74471-4 0  9990
TLE2=2 30776  35.4362 314.7457 0002356 137.0082 223.0827 15.32347934570968
